[{"OBJECT_NAME":"STARLINK-3360","OBJECT_ID":"2022-005AX","EPOCH":"2026-03-09T22:08:35.367648","MEAN_MOTION":15.08836848,"ECCENTRICITY":0.00019022,"INCLINATION":53.2181,"RA_OF_ASC_NODE":307.8944,"ARG_OF_PERICENTER":52.2506,"MEAN_ANOMALY":307.8658,"EPHEMERIS_TYPE":0,"CLASSIFICATION_TYPE":"U","NORAD_CAT_ID":51149,"ELEMENT_SET_NO":999,"REV_AT_EPOCH":22863,"BSTAR":-3.7113367e-5,"MEAN_MOTION_DOT":-8.79e-6,"MEAN_MOTION_DDOT":0},{"OBJECT_NAME":"CZ-2D R\/B","OBJECT_ID":"2010-027B","EPOCH":"2026-03-09T19:01:31.304352","MEAN_MOTION":15.02332282,"ECCENTRICITY":0.00475082,"INCLINATION":97.9913,"RA_OF_ASC_NODE":95.0303,"ARG_OF_PERICENTER":252.3591,"MEAN_ANOMALY":107.2442,"EPHEMERIS_TYPE":0,"CLASSIFICATION_TYPE":"U","NORAD_CAT_ID":36597,"ELEMENT_SET_NO":999,"REV_AT_EPOCH":85595,"BSTAR":0.00022535675,"MEAN_MOTION_DOT":2.983e-5,"MEAN_MOTION_DDOT":0}]
